{
    "links": {
        "self": "http://www.neowsapp.com/rest/v1/neo/3735272?api_key=iIulBulltgU6a56xZRHN4H3l9WmuAYTsLGpBGhQ2"
    },
    "id": "3735272",
    "neo_reference_id": "3735272",
    "name": "(2015 WF)",
    "designation": "2015 WF",
    "nasa_jpl_url": "http://ssd.jpl.nasa.gov/sbdb.cgi?sstr=3735272",
    "absolute_magnitude_h": 25.9,
    "estimated_diameter": {
        "kilometers": {
            "estimated_diameter_min": 0.0175612318,
            "estimated_diameter_max": 0.0392681082
        },
        "meters": {
            "estimated_diameter_min": 17.561231848,
            "estimated_diameter_max": 39.2681081809
        },
        "miles": {
            "estimated_diameter_min": 0.0109120402,
            "estimated_diameter_max": 0.0244000636
        },
        "feet": {
            "estimated_diameter_min": 57.6155918963,
            "estimated_diameter_max": 128.8323800441
        }
    },
    "is_potentially_hazardous_asteroid": false,
    "close_approach_data": [
        {
            "close_approach_date": "2015-11-06",
            "close_approach_date_full": "2015-Nov-06 05:28",
            "epoch_date_close_approach": 1446787680000,
            "relative_velocity": {
                "kilometers_per_second": "7.2438214321",
                "kilometers_per_hour": "26077.7571554409",
                "miles_per_hour": "16203.7041613905"
            },
            "miss_distance": {
                "astronomical": "0.0317024904",
                "lunar": "12.3322687656",
                "kilometers": "4742625.037535448",
                "miles": "2946930.5473392624"
            },
            "orbiting_body": "Earth"
        },
        {
            "close_approach_date": "2059-09-05",
            "close_approach_date_full": "2059-Sep-05 00:07",
            "epoch_date_close_approach": 2829946020000,
            "relative_velocity": {
                "kilometers_per_second": "19.9476101155",
                "kilometers_per_hour": "71811.3964158601",
                "miles_per_hour": "44620.8090673993"
            },
            "miss_distance": {
                "astronomical": "0.4261986575",
                "lunar": "165.7912777675",
                "kilometers": "63758411.358859525",
                "miles": "39617639.724030445"
            },
            "orbiting_body": "Earth"
        }
    ],
    "orbital_data": {
        "orbit_id": "7",
        "orbit_determination_date": "2017-04-06 08:30:32",
        "first_observation_date": "2015-11-16",
        "last_observation_date": "2015-11-22",
        "data_arc_in_days": 6,
        "observations_used": 21,
        "orbit_uncertainty": "8",
        "minimum_orbit_intersection": ".0249816",
        "jupiter_tisserand_invariant": "3.408",
        "epoch_osculation": "2457343.5",
        "eccentricity": ".5479625749141488",
        "semi_major_axis": "2.252160695506529",
        "inclination": "3.93631265656063",
        "ascending_node_longitude": "214.1570745917588",
        "orbital_period": "1234.518178205823",
        "perihelion_distance": "1.018060921676331",
        "perihelion_argument": "183.9998685119812",
        "aphelion_distance": "3.486260469336727",
        "perihelion_time": "2457328.985360486759",
        "mean_anomaly": "4.232639354376188",
        "mean_motion": ".2916117448535292",
        "equinox": "J2000",
        "orbit_class": {
            "orbit_class_type": "AMO",
            "orbit_class_description": "Near-Earth asteroid orbits similar to that of 1221 Amor",
            "orbit_class_range": "1.017 AU < q (perihelion) < 1.3 AU"
        }
    },
    "is_sentry_object": false
}